[{"OBJECT_NAME":"GEESAT-3 09","OBJECT_ID":"2024-159J","EPOCH":"2026-03-09T19:20:24.519840","MEAN_MOTION":14.83818365,"ECCENTRICITY":0.00221767,"INCLINATION":49.996,"RA_OF_ASC_NODE":183.5508,"ARG_OF_PERICENTER":38.7487,"MEAN_ANOMALY":321.5038,"EPHEMERIS_TYPE":0,"CLASSIFICATION_TYPE":"U","NORAD_CAT_ID":61019,"ELEMENT_SET_NO":999,"REV_AT_EPOCH":8201,"BSTAR":0.00039687818,"MEAN_MOTION_DOT":3.108e-5,"MEAN_MOTION_DDOT":0},{"OBJECT_NAME":"NOAA 16 DEB","OBJECT_ID":"2000-055MU","EPOCH":"2026-03-07T08:24:35.897472","MEAN_MOTION":14.74621786,"ECCENTRICITY":0.00249921,"INCLINATION":98.8646,"RA_OF_ASC_NODE":209.8947,"ARG_OF_PERICENTER":270.3207,"MEAN_ANOMALY":89.5136,"EPHEMERIS_TYPE":0,"CLASSIFICATION_TYPE":"U","NORAD_CAT_ID":41520,"ELEMENT_SET_NO":999,"REV_AT_EPOCH":51175,"BSTAR":0.011935935,"MEAN_MOTION_DOT":0.0008086,"MEAN_MOTION_DDOT":0}]
